start=new Date('2021-12-16T00:00:00.000Z').valueOf();
sats=[{"CENTER_NAME":"EARTH","REF_FRAME":"TEME","CLASSIFICATION_TYPE":"U","EPHEMERIS_TYPE":"0","OBJECT_NAME":"STARLINK-3130","MEAN_MOTION_DOT":"0.00041183","PERIOD":"91.534","NORAD_CAT_ID":"49437","INCLINATION":"53.2182","GP_ID":"191776416","RCS_SIZE":"LARGE","OBJECT_TYPE":"PAYLOAD","FILE":"3241521","COUNTRY_CODE":"US","BSTAR":"0.00029658000000","LAUNCH_DATE":"2021-11-13","EPOCH":"2021-12-15T22:00:01.999584","PERIAPSIS":"348.111","RA_OF_ASC_NODE":"332.7511","TIME_SYSTEM":"UTC","MEAN_ANOMALY":"193.4684","TLE_LINE1":"1 49437U 21104AF  21349.91668981  .00041183  00000-0  29658-3 0  9992","MEAN_MOTION":"15.73184784","APOAPSIS":"351.496","ELEMENT_SET_NO":"999","TLE_LINE2":"2 49437  53.2182 332.7511 0002515  23.7640 193.4684 15.73184784  6376","OBJECT_ID":"2021-104AF","REV_AT_EPOCH":"637","SEMIMAJOR_AXIS":"6727.939","SITE":"AFETR","MEAN_ELEMENT_THEORY":"SGP4","DECAY_DATE":null,"ECCENTRICITY":"0.00025150","MEAN_MOTION_DDOT":"0.0000000000000","ARG_OF_PERICENTER":"23.7640"},{"CENTER_NAME":"EARTH","REF_FRAME":"TEME","EPHEMERIS_TYPE":"0","CLASSIFICATION_TYPE":"U","INCLINATION":"53.2180","PERIOD":"91.534","MEAN_MOTION_DOT":"0.00040996","NORAD_CAT_ID":"49438","OBJECT_NAME":"STARLINK-3044","GP_ID":"191773331","OBJECT_TYPE":"PAYLOAD","RCS_SIZE":"LARGE","EPOCH":"2021-12-15T22:00:01.999584","LAUNCH_DATE":"2021-11-13","FILE":"3241387","BSTAR":"0.00029524000000","COUNTRY_CODE":"US","TIME_SYSTEM":"UTC","RA_OF_ASC_NODE":"332.7477","PERIAPSIS":"348.278","APOAPSIS":"351.319","MEAN_MOTION":"15.73186683","TLE_LINE1":"1 49438U 21104AG  21349.91668981  .00040996  00000-0  29524-3 0  9996","MEAN_ANOMALY":"200.2495","OBJECT_ID":"2021-104AG","ELEMENT_SET_NO":"999","TLE_LINE2":"2 49438  53.2180 332.7477 0002260  17.9738 200.2495 15.73186683  6373","REV_AT_EPOCH":"637","SITE":"AFETR","SEMIMAJOR_AXIS":"6727.933","MEAN_MOTION_DDOT":"0.0000000000000","ECCENTRICITY":"0.00022600","DECAY_DATE":null,"MEAN_ELEMENT_THEORY":"SGP4","ARG_OF_PERICENTER":"17.9738"},{"SEMIMAJOR_AXIS":"6727.785","SITE":"AFETR","ARG_OF_PERICENTER":"21.5382","ECCENTRICITY":"0.00025030","DECAY_DATE":null,"MEAN_ELEMENT_THEORY":"SGP4","MEAN_MOTION_DDOT":"0.0000000000000","MEAN_MOTION":"15.73238684","MEAN_ANOMALY":"201.3175","TLE_LINE1":"1 49439U 21104AH  21349.91668981 -.00028235  00000-0 -19706-3 0  9992","APOAPSIS":"351.334","PERIAPSIS":"347.966","TIME_SYSTEM":"UTC","RA_OF_ASC_NODE":"332.7400","REV_AT_EPOCH":"639","TLE_LINE2":"2 49439  53.2183 332.7400 0002503  21.5382 201.3175 15.73238684  6397","ELEMENT_SET_NO":"999","OBJECT_ID":"2021-104AH","GP_ID":"191773317","FILE":"3241387","COUNTRY_CODE":"US","BSTAR":"-0.00019706000000","EPOCH":"2021-12-15T22:00:01.999584","LAUNCH_DATE":"2021-11-13","OBJECT_TYPE":"PAYLOAD","RCS_SIZE":"LARGE","REF_FRAME":"TEME","CENTER_NAME":"EARTH","NORAD_CAT_ID":"49439","PERIOD":"91.531","MEAN_MOTION_DOT":"-0.00028235","OBJECT_NAME":"STARLINK-3108","INCLINATION":"53.2183","CLASSIFICATION_TYPE":"U","EPHEMERIS_TYPE":"0"},{"APOAPSIS":"351.159","TLE_LINE1":"1 49440U 21104AJ  21349.91668981 -.00045594  00000-0 -32145-3 0  9993","MEAN_ANOMALY":"188.9966","MEAN_MOTION":"15.73250579","RA_OF_ASC_NODE":"332.7469","TIME_SYSTEM":"UTC","PERIAPSIS":"348.073","REV_AT_EPOCH":"637","OBJECT_ID":"2021-104AJ","TLE_LINE2":"2 49440  53.2182 332.7469 0002294  30.0962 188.9966 15.73250579  6372","ELEMENT_SET_NO":"999","SEMIMAJOR_AXIS":"6727.751","SITE":"AFETR","ARG_OF_PERICENTER":"30.0962","MEAN_MOTION_DDOT":"0.0000000000000","MEAN_ELEMENT_THEORY":"SGP4","ECCENTRICITY":"0.00022940","DECAY_DATE":null,"REF_FRAME":"TEME","CENTER_NAME":"EARTH","INCLINATION":"53.2182","OBJECT_NAME":"STARLINK-3105","NORAD_CAT_ID":"49440","PERIOD":"91.530","MEAN_MOTION_DOT":"-0.00045594","EPHEMERIS_TYPE":"0","CLASSIFICATION_TYPE":"U","GP_ID":"191773338","LAUNCH_DATE":"2021-11-13","EPOCH":"2021-12-15T22:00:01.999584","BSTAR":"-0.00032145000000","FILE":"3241388","COUNTRY_CODE":"US","RCS_SIZE":"LARGE","OBJECT_TYPE":"PAYLOAD"},{"SEMIMAJOR_AXIS":"6727.872","SITE":"AFETR","ECCENTRICITY":"0.00023670","DECAY_DATE":null,"MEAN_ELEMENT_THEORY":"SGP4","MEAN_MOTION_DDOT":"0.0000000000000","ARG_OF_PERICENTER":"30.2993","PERIAPSIS":"348.145","RA_OF_ASC_NODE":"332.7414","TIME_SYSTEM":"UTC","MEAN_MOTION":"15.73208111","MEAN_ANOMALY":"193.5105","TLE_LINE1":"1 49441U 21104AK  21349.91668981  .00054545  00000-0  39037-3 0  9995","APOAPSIS":"351.330","ELEMENT_SET_NO":"999","TLE_LINE2":"2 49441  53.2190 332.7414 0002367  30.2993 193.5105 15.73208111  6382","OBJECT_ID":"2021-104AK","REV_AT_EPOCH":"638","GP_ID":"191776419","OBJECT_TYPE":"PAYLOAD","RCS_SIZE":"LARGE","BSTAR":"0.00039037000000","FILE":"3241522","COUNTRY_CODE":"US","EPOCH":"2021-12-15T22:00:01.999584","LAUNCH_DATE":"2021-11-13","CENTER_NAME":"EARTH","REF_FRAME":"TEME","CLASSIFICATION_TYPE":"U","EPHEMERIS_TYPE":"0","PERIOD":"91.533","MEAN_MOTION_DOT":"0.00054545","NORAD_CAT_ID":"49441","OBJECT_NAME":"STARLINK-3128","INCLINATION":"53.2190"},{"GP_ID":"191776432","RCS_SIZE":"LARGE","OBJECT_TYPE":"PAYLOAD","LAUNCH_DATE":"2021-11-13","EPOCH":"2021-12-15T22:00:01.999584","FILE":"3241522","COUNTRY_CODE":"US","BSTAR":"-0.00008143800000","CENTER_NAME":"EARTH","REF_FRAME":"TEME","EPHEMERIS_TYPE":"0","CLASSIFICATION_TYPE":"U","INCLINATION":"53.2189","OBJECT_NAME":"STARLINK-3098","PERIOD":"91.532","NORAD_CAT_ID":"49442","MEAN_MOTION_DOT":"-0.00012046","SITE":"AFETR","SEMIMAJOR_AXIS":"6727.835","MEAN_MOTION_DDOT":"0.0000000000000","MEAN_ELEMENT_THEORY":"SGP4","DECAY_DATE":null,"ECCENTRICITY":"0.00022610","ARG_OF_PERICENTER":"18.9039","TIME_SYSTEM":"UTC","RA_OF_ASC_NODE":"332.7488","PERIAPSIS":"348.179","APOAPSIS":"351.221","MEAN_ANOMALY":"201.1646","TLE_LINE1":"1 49442U 21104AL  21349.91668981 -.00012046  00000-0 -81438-4 0  9991","MEAN_MOTION":"15.73221068","OBJECT_ID":"2021-104AL","ELEMENT_SET_NO":"999","TLE_LINE2":"2 49442  53.2189 332.7488 0002261  18.9039 201.1646 15.73221068  6381","REV_AT_EPOCH":"638"},{"REV_AT_EPOCH":"637","ELEMENT_SET_NO":"999","TLE_LINE2":"2 49443  53.2185 332.7364 0002207  22.3963 202.3331 15.73193626  6377","OBJECT_ID":"2021-104AM","MEAN_MOTION":"15.73193626","TLE_LINE1":"1 49443U 21104AM  21349.91668981  .00059994  00000-0  42892-3 0  9993","MEAN_ANOMALY":"202.3331","APOAPSIS":"351.263","PERIAPSIS":"348.293","RA_OF_ASC_NODE":"332.7364","TIME_SYSTEM":"UTC","ARG_OF_PERICENTER":"22.3963","DECAY_DATE":null,"ECCENTRICITY":"0.00022070","MEAN_ELEMENT_THEORY":"SGP4","MEAN_MOTION_DDOT":"0.0000000000000","SEMIMAJOR_AXIS":"6727.913","SITE":"AFETR","MEAN_MOTION_DOT":"0.00059994","PERIOD":"91.534","NORAD_CAT_ID":"49443","OBJECT_NAME":"STARLINK-3136","INCLINATION":"53.2185","CLASSIFICATION_TYPE":"U","EPHEMERIS_TYPE":"0","REF_FRAME":"TEME","CENTER_NAME":"EARTH","FILE":"3241522","BSTAR":"0.00042892000000","COUNTRY_CODE":"US","EPOCH":"2021-12-15T22:00:01.999584","LAUNCH_DATE":"2021-11-13","OBJECT_TYPE":"PAYLOAD","RCS_SIZE":"LARGE","GP_ID":"191776433"},{"RCS_SIZE":"LARGE","OBJECT_TYPE":"PAYLOAD","LAUNCH_DATE":"2021-11-13","EPOCH":"2021-12-15T22:00:01.999584","FILE":"3241542","COUNTRY_CODE":"US","BSTAR":"-0.00029693000000","GP_ID":"191800195","EPHEMERIS_TYPE":"0","CLASSIFICATION_TYPE":"U","INCLINATION":"53.2184","OBJECT_NAME":"STARLINK-3126","PERIOD":"91.531","MEAN_MOTION_DOT":"-0.00042166","NORAD_CAT_ID":"49444","CENTER_NAME":"EARTH","REF_FRAME":"TEME","MEAN_MOTION_DDOT":"0.0000000000000","MEAN_ELEMENT_THEORY":"SGP4","DECAY_DATE":null,"ECCENTRICITY":"0.00023710","ARG_OF_PERICENTER":"29.4537","SITE":"AFETR","SEMIMAJOR_AXIS":"6727.775","OBJECT_ID":"2021-104AN","ELEMENT_SET_NO":"999","TLE_LINE2":"2 49444  53.2184 332.7442 0002371  29.4537 191.5617 15.73242110  3681","REV_AT_EPOCH":"368","TIME_SYSTEM":"UTC","RA_OF_ASC_NODE":"332.7442","PERIAPSIS":"348.045","APOAPSIS":"351.235","TLE_LINE1":"1 49444U 21104AN  21349.91668981 -.00042166  00000-0 -29693-3 0  9993","MEAN_ANOMALY":"191.5617","MEAN_MOTION":"15.73242110"},{"RCS_SIZE":"LARGE","OBJECT_TYPE":"PAYLOAD","FILE":"3241542","COUNTRY_CODE":"US","BSTAR":"0.00040644000000","LAUNCH_DATE":"2021-11-13","EPOCH":"2021-12-15T22:00:01.999584","GP_ID":"191800396","CLASSIFICATION_TYPE":"U","EPHEMERIS_TYPE":"0","OBJECT_NAME":"STARLINK-3122","NORAD_CAT_ID":"49445","PERIOD":"91.533","MEAN_MOTION_DOT":"0.00056816","INCLINATION":"53.2184","CENTER_NAME":"EARTH","REF_FRAME":"TEME","MEAN_ELEMENT_THEORY":"SGP4","ECCENTRICITY":"0.00023990","DECAY_DATE":null,"MEAN_MOTION_DDOT":"0.0000000000000","ARG_OF_PERICENTER":"28.2613","SITE":"AFETR","SEMIMAJOR_AXIS":"6727.890","ELEMENT_SET_NO":"999","TLE_LINE2":"2 49445  53.2184 332.7323 0002399  28.2613 198.3676 15.73201666  3683","OBJECT_ID":"2021-104AP","REV_AT_EPOCH":"368","PERIAPSIS":"348.141","RA_OF_ASC_NODE":"332.7323","TIME_SYSTEM":"UTC","MEAN_ANOMALY":"198.3676","TLE_LINE1":"1 49445U 21104AP  21349.91668981  .00056816  00000-0  40644-3 0  9998","MEAN_MOTION":"15.73201666","APOAPSIS":"351.369"},{"MEAN_ELEMENT_THEORY":"SGP4","ECCENTRICITY":"0.00024760","DECAY_DATE":null,"MEAN_MOTION_DDOT":"0.0000000000000","ARG_OF_PERICENTER":"26.6829","SITE":"AFETR","SEMIMAJOR_AXIS":"6727.675","ELEMENT_SET_NO":"999","TLE_LINE2":"2 49446  53.2184 332.7420 0002476  26.6829 195.1356 15.73277148  6376","OBJECT_ID":"2021-104AQ","REV_AT_EPOCH":"637","PERIAPSIS":"347.874","RA_OF_ASC_NODE":"332.7420","TIME_SYSTEM":"UTC","MEAN_ANOMALY":"195.1356","TLE_LINE1":"1 49446U 21104AQ  21349.91668981 -.00039186  00000-0 -27511-3 0  9990","MEAN_MOTION":"15.73277148","APOAPSIS":"351.206","RCS_SIZE":"LARGE","OBJECT_TYPE":"PAYLOAD","FILE":"3241523","COUNTRY_CODE":"US","BSTAR":"-0.00027511000000","LAUNCH_DATE":"2021-11-13","EPOCH":"2021-12-15T22:00:01.999584","GP_ID":"191776452","CLASSIFICATION_TYPE":"U","EPHEMERIS_TYPE":"0","OBJECT_NAME":"STARLINK-3099","PERIOD":"91.529","MEAN_MOTION_DOT":"-0.00039186","NORAD_CAT_ID":"49446","INCLINATION":"53.2184","CENTER_NAME":"EARTH","REF_FRAME":"TEME"}];
